IRIDIUM 159             
1 43578U 18061K   25300.59799183  .00000035  00000+0  55099-5 0  9994
2 43578  86.3988 153.9433 0002147  88.9975 271.1466 14.34217759380044
IRIDIUM 180             
1 43922U 19002A   25300.87655955  .00000401  00000+0  13612-3 0  9992
2 43922  86.3928  90.7180 0002187  89.6323 270.5123 14.34219760355697
IRIDIUM 176             
1 43923U 19002B   25300.84535957  .00001582  00000+0  24688-3 0  9995
2 43923  86.6051  90.7081 0002046  73.3490 286.7952 14.72257014365064
IRIDIUM 168             
1 43924U 19002C   25300.87021823  .00000079  00000+0  20971-4 0  9993
2 43924  86.3929  90.7915 0002134  90.6464 269.4977 14.34217863355670
IRIDIUM 173             
1 43925U 19002D   25300.85753235  .00000234  00000+0  76456-4 0  9993
2 43925  86.3927  90.6951 0002194  87.5487 272.5960 14.34218177355658
IRIDIUM 169             
1 43926U 19002E   25300.86640534  .00000189  00000+0  55182-4 0  9994
2 43926  86.4193 122.3406 0002410  56.1625 303.9802 14.38610909356827
IRIDIUM 172             
1 43927U 19002F   25300.85119118  .00000226  00000+0  73510-4 0  9990
2 43927  86.3926  90.7047 0002365  94.3116 265.8350 14.34218670355668
IRIDIUM 175             
1 43928U 19002G   25300.70461709  .00001639  00000+0  25595-3 0  9999
2 43928  86.1535  35.7600 0001364 105.5226 254.6142 14.72254532365038
